{
  "type": "FeatureCollection",
  "features": [
    {
      "type": "Feature",
      "properties": {
        "norad_id": 41330,
        "name": "COSMOS 2514 (751)",
        "group": "glo-ops",
        "lat": -20.600873885240375,
        "lon": 149.09890103986166,
        "alt_km": 19104.427838175263,
        "timestamp": "2025-12-22T04:03:39.430290+00:00",
        "meta_object_name": "COSMOS 2514 (751)",
        "meta_object_id": "2016-008A",
        "meta_epoch": "2025-12-21T10:27:05.552352",
        "meta_mean_motion": 2.13102677,
        "meta_eccentricity": 0.0011723,
        "meta_inclination": 65.1288,
        "meta_ra_of_asc_node": 319.1063,
        "meta_arg_of_pericenter": 220.1275,
        "meta_mean_anomaly": 139.7798,
        "meta_ephemeris_type": 0,
        "meta_classification_type": "U",
        "meta_norad_cat_id": 41330,
        "meta_element_set_no": 999,
        "meta_rev_at_epoch": 7683,
        "meta_bstar": 0,
        "meta_mean_motion_dot": -4.6e-07,
        "meta_mean_motion_ddot": 0,
        "tle_line1": "1 41330U 16008A   25355.43548093 -.00000046  00000+0  00000+0 0  9991",
        "tle_line2": "2 41330  65.1288 319.1063 0011723 220.1275 139.7798  2.13102677 76836"
      },
      "geometry": {
        "type": "Point",
        "coordinates": [
          149.09890103986166,
          -20.600873885240375
        ]
      }
    },
    {
      "type": "Feature",
      "properties": {
        "norad_id": 42939,
        "name": "COSMOS 2522 (752)",
        "group": "glo-ops",
        "lat": -29.383361402433835,
        "lon": -177.99229979769157,
        "alt_km": 19137.54043046749,
        "timestamp": "2025-12-22T04:03:39.430305+00:00",
        "meta_object_name": "COSMOS 2522 (752)",
        "meta_object_id": "2017-055A",
        "meta_epoch": "2025-12-20T19:18:35.639424",
        "meta_mean_motion": 2.13102071,
        "meta_eccentricity": 0.00063061,
        "meta_inclination": 64.0764,
        "meta_ra_of_asc_node": 197.9542,
        "meta_arg_of_pericenter": 223.7674,
        "meta_mean_anomaly": 136.256,
        "meta_ephemeris_type": 0,
        "meta_classification_type": "U",
        "meta_norad_cat_id": 42939,
        "meta_element_set_no": 999,
        "meta_rev_at_epoch": 6417,
        "meta_bstar": 0,
        "meta_mean_motion_dot": 9.9e-07,
        "meta_mean_motion_ddot": 0,
        "tle_line1": "1 42939U 17055A   25354.80457916  .00000099  00000+0  00000+0 0  9990",
        "tle_line2": "2 42939  64.0764 197.9542 0006306 223.7674 136.2560  2.13102071 64177"
      },
      "geometry": {
        "type": "Point",
        "coordinates": [
          -177.99229979769157,
          -29.383361402433835
        ]
      }
    },
    {
      "type": "Feature",
      "properties": {
        "norad_id": 43508,
        "name": "COSMOS 2527 (756)",
        "group": "glo-ops",
        "lat": -2.7879328004578294,
        "lon": 78.55817866596959,
        "alt_km": 19145.3141704028,
        "timestamp": "2025-12-22T04:03:39.430317+00:00",
        "meta_object_name": "COSMOS 2527 (756)",
        "meta_object_id": "2018-053A",
        "meta_epoch": "2025-12-20T18:22:11.791200",
        "meta_mean_motion": 2.13102375,
        "meta_eccentricity": 0.00088721,
        "meta_inclination": 65.4768,
        "meta_ra_of_asc_node": 79.8631,
        "meta_arg_of_pericenter": 227.1028,
        "meta_mean_anomaly": 132.8569,
        "meta_ephemeris_type": 0,
        "meta_classification_type": "U",
        "meta_norad_cat_id": 43508,
        "meta_element_set_no": 999,
        "meta_rev_at_epoch": 5847,
        "meta_bstar": 0,
        "meta_mean_motion_dot": -1.4e-07,
        "meta_mean_motion_ddot": 0,
        "tle_line1": "1 43508U 18053A   25354.76541425 -.00000014  00000+0  00000+0 0  9994",
        "tle_line2": "2 43508  65.4768  79.8631 0008872 227.1028 132.8569  2.13102375 58471"
      },
      "geometry": {
        "type": "Point",
        "coordinates": [
          78.55817866596959,
          -2.7879328004578294
        ]
      }
    },
    {
      "type": "Feature",
      "properties": {
        "norad_id": 43687,
        "name": "COSMOS 2529 (757)",
        "group": "glo-ops",
        "lat": -61.688998289249554,
        "lon": 135.09440367199448,
        "alt_km": 19120.808624660494,
        "timestamp": "2025-12-22T04:03:39.430328+00:00",
        "meta_object_name": "COSMOS 2529 (757)",
        "meta_object_id": "2018-086A",
        "meta_epoch": "2025-12-21T07:58:09.469056",
        "meta_mean_motion": 2.13102139,
        "meta_eccentricity": 0.0006927,
        "meta_inclination": 64.2926,
        "meta_ra_of_asc_node": 198.598,
        "meta_arg_of_pericenter": 253.6898,
        "meta_mean_anomaly": 106.3061,
        "meta_ephemeris_type": 0,
        "meta_classification_type": "U",
        "meta_norad_cat_id": 43687,
        "meta_element_set_no": 999,
        "meta_rev_at_epoch": 5549,
        "meta_bstar": 0,
        "meta_mean_motion_dot": 9.7e-07,
        "meta_mean_motion_ddot": 0,
        "tle_line1": "1 43687U 18086A   25355.33205404  .00000097  00000+0  00000+0 0  9996",
        "tle_line2": "2 43687  64.2926 198.5980 0006927 253.6898 106.3061  2.13102139 55496"
      },
      "geometry": {
        "type": "Point",
        "coordinates": [
          135.09440367199448,
          -61.688998289249554
        ]
      }
    },
    {
      "type": "Feature",
      "properties": {
        "norad_id": 44299,
        "name": "COSMOS 2534 (758)",
        "group": "glo-ops",
        "lat": 48.86666017600208,
        "lon": -128.04699673904852,
        "alt_km": 19139.325415535117,
        "timestamp": "2025-12-22T04:03:39.430340+00:00",
        "meta_object_name": "COSMOS 2534 (758)",
        "meta_object_id": "2019-030A",
        "meta_epoch": "2025-12-21T10:55:51.060576",
        "meta_mean_motion": 2.13102432,
        "meta_eccentricity": 0.00087289,
        "meta_inclination": 64.366,
        "meta_ra_of_asc_node": 198.5992,
        "meta_arg_of_pericenter": 284.1192,
        "meta_mean_anomaly": 304.9695,
        "meta_ephemeris_type": 0,
        "meta_classification_type": "U",
        "meta_norad_cat_id": 44299,
        "meta_element_set_no": 999,
        "meta_rev_at_epoch": 5113,
        "meta_bstar": 0,
        "meta_mean_motion_dot": 9.7e-07,
        "meta_mean_motion_ddot": 0,
        "tle_line1": "1 44299U 19030A   25355.45545209  .00000097  00000+0  00000+0 0  9999",
        "tle_line2": "2 44299  64.3660 198.5992 0008728 284.1192 304.9695  2.13102432 51134"
      },
      "geometry": {
        "type": "Point",
        "coordinates": [
          -128.04699673904852,
          48.86666017600208
        ]
      }
    },
    {
      "type": "Feature",
      "properties": {
        "norad_id": 44850,
        "name": "COSMOS 2544 (759)",
        "group": "glo-ops",
        "lat": 35.27319268515802,
        "lon": 98.47267601594983,
        "alt_km": 19157.126251068,
        "timestamp": "2025-12-22T04:03:39.430351+00:00",
        "meta_object_name": "COSMOS 2544 (759)",
        "meta_object_id": "2019-088A",
        "meta_epoch": "2025-12-21T04:18:06.635808",
        "meta_mean_motion": 2.13102151,
        "meta_eccentricity": 0.001427,
        "meta_inclination": 65.4641,
        "meta_ra_of_asc_node": 79.6763,
        "meta_arg_of_pericenter": 250.212,
        "meta_mean_anomaly": 109.6709,
        "meta_ephemeris_type": 0,
        "meta_classification_type": "U",
        "meta_norad_cat_id": 44850,
        "meta_element_set_no": 999,
        "meta_rev_at_epoch": 4692,
        "meta_bstar": 0,
        "meta_mean_motion_dot": -1e-07,
        "meta_mean_motion_ddot": 0,
        "tle_line1": "1 44850U 19088A   25355.17924347 -.00000010  00000+0  00000+0 0  9994",
        "tle_line2": "2 44850  65.4641  79.6763 0014270 250.2120 109.6709  2.13102151 46922"
      },
      "geometry": {
        "type": "Point",
        "coordinates": [
          98.47267601594983,
          35.27319268515802
        ]
      }
    },
    {
      "type": "Feature",
      "properties": {
        "norad_id": 45358,
        "name": "COSMOS 2545 (760)",
        "group": "glo-ops",
        "lat": -57.531503036337845,
        "lon": -172.71920653484688,
        "alt_km": 19106.953687660796,
        "timestamp": "2025-12-22T04:03:39.430363+00:00",
        "meta_object_name": "COSMOS 2545 (760)",
        "meta_object_id": "2020-018A",
        "meta_epoch": "2025-12-20T21:44:12.708096",
        "meta_mean_motion": 2.13102664,
        "meta_eccentricity": 0.00114269,
        "meta_inclination": 64.4648,
        "meta_ra_of_asc_node": 318.6832,
        "meta_arg_of_pericenter": 250.0027,
        "meta_mean_anomaly": 109.8672,
        "meta_ephemeris_type": 0,
        "meta_classification_type": "U",
        "meta_norad_cat_id": 45358,
        "meta_element_set_no": 999,
        "meta_rev_at_epoch": 4486,
        "meta_bstar": 0,
        "meta_mean_motion_dot": -5e-07,
        "meta_mean_motion_ddot": 0,
        "tle_line1": "1 45358U 20018A   25354.90570264 -.00000050  00000+0  00000+0 0  9992",
        "tle_line2": "2 45358  64.4648 318.6832 0011426 250.0027 109.8672  2.13102664 44860"
      },
      "geometry": {
        "type": "Point",
        "coordinates": [
          -172.71920653484688,
          -57.531503036337845
        ]
      }
    }
  ]
}